ONEWEB-0267             
1 48985U 21060U   25109.07771898  .00000073  00000+0  15605-3 0  9996
2 48985  87.9028 313.3203 0001638  78.0318 282.0996 13.16596113185073
ONEWEB-0268             
1 48986U 21060V   25109.12204369 -.00000005  00000+0 -47040-4 0  9993
2 48986  87.9032 313.3182 0001828  84.4672 275.6668 13.16593337185349
ONEWEB-0269             
1 48987U 21060W   25108.64708097  .00000142  00000+0  33715-3 0  9990
2 48987  87.9034 313.4477 0001842  89.6949 270.4393 13.16595361185066
ONEWEB-0270             
1 48988U 21060X   25108.51248900  .00000007  00000+0 -14127-4 0  9997
2 48988  87.9029 313.4444 0001411  76.1219 284.0069 13.16592758185099
ONEWEB-0271             
1 48989U 21060Y   25108.65183113  .00000067  00000+0  14060-3 0  9997
2 48989  87.9032 313.3969 0001628  78.4300 281.7013 13.16595508185090
ONEWEB-0272             
1 48990U 21060Z   25109.12996388  .00000026  00000+0  35192-4 0  9993
2 48990  87.9031 313.3338 0001674  80.8538 279.2782 13.16596317185119
ONEWEB-0273             
1 48991U 21060AA  25109.07615036  .00000007  00000+0 -14965-4 0  9991
2 48991  87.9030 313.3297 0001526  85.9807 274.1498 13.16597482185082
ONEWEB-0274             
1 48992U 21060AB  25108.11352623  .00000028  00000+0  38321-4 0  9990
2 48992  87.9043 313.5557 0002060  79.2063 280.9300 13.16592447184994
